SL-3 R/B                
1 19046U 88032B   26073.93343999  .00006019  00000+0  28066-3 0  9998
2 19046  97.5193  57.1659 0024836 212.2131 147.7588 15.19977005 52904
SL-16 R/B               
1 19120U 88039B   26073.70130515  .00000181  00000+0  10820-3 0  9994
2 19120  71.0140  57.9494 0023049 327.0387  32.9300 14.19616632959092
COSMOS 1953             
1 19210U 88050A   26073.66625274  .00009867  00000+0  35253-3 0  9990
2 19210  82.5103 153.2426 0012587 106.8084 253.4538 15.28619423 38548
SL-8 R/B                
1 19257U 88053B   26073.53281792  .00000313  00000+0  10991-3 0  9992
2 19257  74.0454 103.5385 0021498 282.1836 188.5763 14.38919116977294
COSMOS 1975             
1 19573U 88093A   26073.83244910  .00008324  00000+0  30155-3 0  9995
2 19573  82.5180 112.5222 0012611 146.2020 214.0026 15.28148892 20197
SL-14 R/B               
1 19574U 88093B   26073.91427907  .00000688  00000+0  76315-4 0  9998
2 19574  82.5314  37.1391 0021382  24.9912  28.5771 14.85663862  1794
SL-16 R/B               
1 19650U 88102B   26073.92000205  .00000169  00000+0  10947-3 0  9995
2 19650  70.9995 140.4923 0014282 353.2919   6.8011 14.16155252927639
INTERCOSMOS 24          
1 20261U 89080A   26073.80662269  .00000765  00000+0  22785-3 0  9997
2 20261  82.6019 101.0713 1186673 280.9315  66.0745 12.59566345667443
SL-14 R/B               
1 20262U 89080C   26073.67709684  .00000631  00000+0  18436-3 0  9996
2 20262  82.5972 169.9858 1230698 173.3542 188.5732 12.50500366660775
DELTA 1 R/B             
1 20323U 89089B   26073.86300229  .00000395  00000+0  10601-3 0  9999
2 20323  97.0702 280.4788 0070649 105.9304 254.9694 14.50667706896488
ARIANE 40 R/B           
1 20443U 90005H   26073.88637533  .00000302  00000+0  10963-3 0  9994
2 20443  98.3072 134.3927 0010169 182.5889 177.5249 14.39874319893555
DELTA 2 R/B(1)          
1 20453U 90008B   26073.89130340  .00069746  00000+0  79742-3 0  9990
2 20453  35.6033 140.6976 0083556 306.7395  52.5691 15.56709705926942
